{"type":"FeatureCollection","features":[{"type":"Feature","properties":{"name":"Baden-Wuerttemberg + 10 km","source":"OpenStreetMap relation 62611 (ODbL), simplified, buffered 10 km"},"geometry":{"type":"Polygon","coordinates":[[[7.4035,47.7503],[7.3974,47.7913],[7.4265,47.8529],[7.4253,47.8951],[7.4671,47.9759],[7.4455,47.9995],[7.4353,48.0265],[7.4464,48.1401],[7.4825,48.2007],[7.5439,48.2675],[7.5706,48.3386],[7.601,48.367],[7.5994,48.4103],[7.6306,48.4726],[7.6403,48.5192],[7.6686,48.5503],[7.6674,48.5964],[7.6748,48.6196],[7.7344,48.6986],[7.8002,48.7319],[7.8353,48.7603],[7.8447,48.7893],[7.8651,48.8136],[7.9821,48.8713],[8.0111,48.9248],[8.0816,49.0054],[8.1163,49.0293],[8.1658,49.0468],[8.1874,49.0917],[8.2289,49.1338],[8.2327,49.1818],[8.2483,49.212],[8.2569,49.2582],[8.2784,49.2871],[8.3142,49.3107],[8.3146,49.3394],[8.3287,49.3664],[8.328,49.4006],[8.3065,49.4352],[8.3083,49.472],[8.2792,49.5364],[8.2784,49.5679],[8.2994,49.6248],[8.3534,49.6617],[8.4429,49.6784],[8.5003,49.6764],[8.5562,49.6968],[8.6553,49.7144],[8.7009,49.7144],[8.7571,49.7032],[8.7969,49.6828],[8.8227,49.6545],[8.8348,49.6144],[8.9121,49.5928],[8.9389,49.5949],[8.9632,49.6291],[9.0064,49.6537],[9.0848,49.6679],[9.1427,49.6674],[9.1727,49.6976],[9.1576,49.7331],[9.1659,49.7699],[9.2003,49.8181],[9.2473,49.8464],[9.4096,49.8791],[9.5566,49.8713],[9.6513,49.8812],[9.7077,49.8727],[9.7539,49.8501],[9.7805,49.82],[9.8464,49.8157],[9.9055,49.7894],[9.9591,49.7393],[9.9931,49.6587],[10.0302,49.6327],[10.078,49.6345],[10.1526,49.6216],[10.1925,49.6008],[10.2386,49.5586],[10.2582,49.523],[10.2591,49.4746],[10.2991,49.4026],[10.2957,49.3743],[10.2759,49.345],[10.2939,49.2867],[10.2817,49.2439],[10.3623,49.1991],[10.3906,49.1495],[10.3922,49.1139],[10.457,49.0845],[10.5237,49.0304],[10.5845,48.9591],[10.5933,48.9147],[10.58,48.7832],[10.6294,48.7016],[10.6296,48.6737],[10.6168,48.6471],[10.5874,48.6211],[10.5225,48.5895],[10.4489,48.574],[10.4437,48.502],[10.4047,48.4574],[10.2343,48.3793],[10.1427,48.3651],[10.1948,48.3075],[10.1993,48.2544],[10.2161,48.2266],[10.2201,48.1953],[10.2632,48.1407],[10.2783,48.074],[10.2666,48.0006],[10.2435,47.9489],[10.2399,47.8891],[10.2399,47.8683],[10.26,47.8462],[10.2707,47.8193],[10.2699,47.796],[10.2517,47.748],[10.27,47.7182],[10.2713,47.685],[10.2379,47.6237],[10.1409,47.5601],[10.0672,47.5493],[9.9991,47.5662],[9.9491,47.5624],[9.8877,47.5711],[9.8115,47.5235],[9.7101,47.5118],[9.679,47.5015],[9.6225,47.463],[9.5568,47.4519],[9.4344,47.4716],[9.3193,47.544],[9.2359,47.5672],[9.1472,47.5661],[9.048,47.5932],[8.98,47.5702],[8.8842,47.5586],[8.8438,47.565],[8.791,47.5854],[8.7346,47.5932],[8.7094,47.5578],[8.6509,47.519],[8.4634,47.479],[8.372,47.476],[8.2933,47.4854],[8.2232,47.5133],[8.1992,47.5072],[8.1564,47.4801],[8.1171,47.4697],[7.9444,47.4539],[7.8439,47.4736],[7.7173,47.4457],[7.6701,47.4431],[7.6069,47.4588],[7.5108,47.5144],[7.4735,47.5454],[7.457,47.5796],[7.4069,47.6177],[7.3935,47.6399],[7.3785,47.6983],[7.385,47.7257],[7.4035,47.7503]]]}}]}
